{
    "links": {
        "self": "http://www.neowsapp.com/rest/v1/neo/3785752?api_key=iIulBulltgU6a56xZRHN4H3l9WmuAYTsLGpBGhQ2"
    },
    "id": "3785752",
    "neo_reference_id": "3785752",
    "name": "(2017 TU3)",
    "designation": "2017 TU3",
    "nasa_jpl_url": "http://ssd.jpl.nasa.gov/sbdb.cgi?sstr=3785752",
    "absolute_magnitude_h": 24.8,
    "estimated_diameter": {
        "kilometers": {
            "estimated_diameter_min": 0.0291443905,
            "estimated_diameter_max": 0.0651688382
        },
        "meters": {
            "estimated_diameter_min": 29.1443904535,
            "estimated_diameter_max": 65.1688382168
        },
        "miles": {
            "estimated_diameter_min": 0.018109479,
            "estimated_diameter_max": 0.0404940262
        },
        "feet": {
            "estimated_diameter_min": 95.6180819754,
            "estimated_diameter_max": 213.8085311752
        }
    },
    "is_potentially_hazardous_asteroid": false,
    "close_approach_data": [
        {
            "close_approach_date": "2017-10-17",
            "close_approach_date_full": "2017-Oct-17 05:32",
            "epoch_date_close_approach": 1508218320000,
            "relative_velocity": {
                "kilometers_per_second": "11.9480685797",
                "kilometers_per_hour": "43013.0468868116",
                "miles_per_hour": "26726.6346058636"
            },
            "miss_distance": {
                "astronomical": "0.0208700445",
                "lunar": "8.1184473105",
                "kilometers": "3122114.204005215",
                "miles": "1939991.807753367"
            },
            "orbiting_body": "Earth"
        }
    ],
    "orbital_data": {
        "orbit_id": "3",
        "orbit_determination_date": "2017-10-20 06:22:03",
        "first_observation_date": "2017-10-10",
        "last_observation_date": "2017-10-19",
        "data_arc_in_days": 9,
        "observations_used": 32,
        "orbit_uncertainty": "8",
        "minimum_orbit_intersection": ".0101538",
        "jupiter_tisserand_invariant": "3.596",
        "epoch_osculation": "2458037.5",
        "eccentricity": ".5651478216631011",
        "semi_major_axis": "2.026784218018558",
        "inclination": "3.134997417234263",
        "ascending_node_longitude": "36.8534790829051",
        "orbital_period": "1053.924978790727",
        "perihelion_distance": ".881351532224218",
        "perihelion_argument": "36.08930020574928",
        "aphelion_distance": "3.172216903812897",
        "perihelion_time": "2458079.073122875556",
        "mean_anomaly": "345.7994406277641",
        "mean_motion": ".3415802901009746",
        "equinox": "J2000",
        "orbit_class": {
            "orbit_class_type": "APO",
            "orbit_class_description": "Near-Earth asteroid orbits which cross the Earth’s orbit similar to that of 1862 Apollo",
            "orbit_class_range": "a (semi-major axis) > 1.0 AU; q (perihelion) < 1.017 AU"
        }
    },
    "is_sentry_object": false
}